STARLINK-31738          
1 59535U 24074B   26068.14029075 -.00005155  00000+0 -17800-3 0  9990
2 59535  43.0029 342.7991 0001789 259.9964 100.0686 15.27566278105973
LIZZIESAT-2 (LS-2)      
1 62383U 24247G   26068.49140277  .00009388  00000+0  34517-3 0  9997
2 62383  44.9909 117.0823 0004092 327.5136  32.5495 15.28222796 67716
